[{"OBJECT_NAME":"GOMX-1","OBJECT_ID":"2013-066Q","EPOCH":"2026-03-09T23:03:54.857376","MEAN_MOTION":14.69103088,"ECCENTRICITY":0.01302226,"INCLINATION":97.6568,"RA_OF_ASC_NODE":275.6493,"ARG_OF_PERICENTER":36.6495,"MEAN_ANOMALY":324.3532,"EPHEMERIS_TYPE":0,"CLASSIFICATION_TYPE":"U","NORAD_CAT_ID":39430,"ELEMENT_SET_NO":999,"REV_AT_EPOCH":65534,"BSTAR":0.00051711143,"MEAN_MOTION_DOT":3.409e-5,"MEAN_MOTION_DDOT":0},{"OBJECT_NAME":"STARLINK-34096","OBJECT_ID":"2025-102X","EPOCH":"2026-03-09T12:16:41.946240","MEAN_MOTION":14.9833116,"ECCENTRICITY":0.00037929,"INCLINATION":70.0002,"RA_OF_ASC_NODE":114.9789,"ARG_OF_PERICENTER":267.5926,"MEAN_ANOMALY":92.4799,"EPHEMERIS_TYPE":0,"CLASSIFICATION_TYPE":"U","NORAD_CAT_ID":64043,"ELEMENT_SET_NO":999,"REV_AT_EPOCH":4581,"BSTAR":0.00029331627,"MEAN_MOTION_DOT":3.409e-5,"MEAN_MOTION_DDOT":0}]
